NORAD_CAT_ID,OBJECT_NAME,OBJECT_TYPE,EPOCH,MEAN_MOTION,ECCENTRICITY,INCLINATION,RA_OF_ASC_NODE,ARG_OF_PERICENTER,MEAN_ANOMALY,BSTAR,MEAN_MOTION_DOT,MEAN_MOTION_DDOT,TLE_LINE0,TLE_LINE1,TLE_LINE2,SEMIMAJOR_AXIS,PERIOD,APOGEE,PERIGEE,DECAYED
55658.0,STARLINK-5307,PAYLOAD,2023-06-15 20:00:01,15.20159942,0.0003387,69.9984,180.7767,269.6666,57.0837,-0.042455,-0.00848097,0.0,0 STARLINK-5307,1 55658U 23021AG  23166.83334491 -.00848097  00000-0 -42455-1 0  9999,2 55658  69.9984 180.7767 0003387 269.6666  57.0837 15.20159942  1306,6883.495,94.727,507.691,503.028,0.0
55658.0,STARLINK-5307,PAYLOAD,2023-06-16 14:00:01,15.18752033,0.0003327,69.9981,178.8227,276.5373,191.5434,-0.049829,-0.00958551,0.0,0 STARLINK-5307,1 55658U 23021AG  23167.58334491 -.00958551  00000-0 -49829-1 0  9991,2 55658  69.9981 178.8227 0003327 276.5373 191.5434 15.18752033 19121,6887.748,94.815,511.905,507.322,0.0
55658.0,STARLINK-5307,PAYLOAD,2023-06-16 22:00:00,15.18063172,0.0003302,69.9982,177.9558,269.4441,220.1964,-0.046772,-0.00887268,0.0,0 STARLINK-5307,1 55658U 23021AG  23167.91667824 -.00887268  00000-0 -46772-1 0  9997,2 55658  69.9982 177.9558 0003302 269.4441 220.1964 15.18063172  1306,6889.832,94.858,513.972,509.422,0.0
55658.0,STARLINK-5307,PAYLOAD,2023-06-17 06:00:02,15.17421522,0.0003287,69.9984,177.0895,272.0096,238.4691,-0.050044,-0.00928703,0.0,0 STARLINK-5307,1 55658U 23021AG  23168.25002315 -.00928703  00000-0 -50044-1 0  9990,2 55658  69.9984 177.0895 0003287 272.0096 238.4691 15.17421522 19226,6891.774,94.898,515.904,511.373,0.0
55658.0,STARLINK-5307,PAYLOAD,2023-06-17 08:31:08,15.18887781,0.0003993,69.997,176.8217,286.1027,73.9703,-0.012868,-0.00259902,0.0,0 STARLINK-5307,1 55658U 23021AG  23168.35496142 -.00259902  00000-0 -12868-1 0  9996,2 55658  69.9970 176.8217 0003993 286.1027  73.9703 15.18887781 19545,6887.338,94.806,511.953,506.453,0.0
55658.0,STARLINK-5307,PAYLOAD,2023-06-17 22:00:01,15.16110768,0.0003229,69.9981,175.3598,266.947,282.7146,-0.049868,-0.00893908,0.0,0 STARLINK-5307,1 55658U 23021AG  23168.91668981 -.00893908  00000-0 -49868-1 0  9990,2 55658  69.9981 175.3598 0003229 266.9470 282.7146 15.16110768  1301,6895.745,94.98,519.837,515.384,0.0
55658.0,STARLINK-5307,PAYLOAD,2023-06-18 14:00:01,15.14843977,0.0003231,69.998,173.6334,271.996,313.7191,-0.056494,-0.00970515,0.0,0 STARLINK-5307,1 55658U 23021AG  23169.58335648 -.00970515  00000-0 -56494-1 0  9998,2 55658  69.9980 173.6334 0003231 271.9960 313.7191 15.14843977 19422,6899.589,95.059,523.684,519.225,0.0
55658.0,STARLINK-5307,PAYLOAD,2023-06-18 22:00:00,15.14158134,0.0003278,69.9982,172.7717,264.9752,337.5407,-0.053111,-0.00900201,0.0,0 STARLINK-5307,1 55658U 23021AG  23169.91667824 -.00900201  00000-0 -53111-1 0  9997,2 55658  69.9982 172.7717 0003278 264.9752 337.5407 15.14158134  1307,6901.673,95.102,525.8,521.275,0.0
55658.0,STARLINK-5307,PAYLOAD,2023-06-19 06:00:00,15.13500302,0.0003299,69.9985,171.9107,268.9236,349.6789,-0.055028,-0.00914448,0.0,0 STARLINK-5307,1 55658U 23021AG  23170.25001157 -.00914448  00000-0 -55028-1 0  9994,2 55658  69.9985 171.9107 0003299 268.9236 349.6789 15.13500302 19525,6903.672,95.144,527.815,523.26,0.0
55658.0,STARLINK-5307,PAYLOAD,2023-06-19 14:00:01,15.12888457,0.0003289,69.9983,171.0505,270.9167,2.9606,-0.059933,-0.00974029,0.0,0 STARLINK-5307,1 55658U 23021AG  23170.58334491 -.00974029  00000-0 -59933-1 0  9990,2 55658  69.9983 171.0505 0003289 270.9167   2.9606 15.12888457  1304,6905.533,95.182,529.67,525.127,0.0
55658.0,STARLINK-5307,PAYLOAD,2023-06-19 22:00:00,15.12203796,0.0003331,69.9985,170.1914,265.6523,22.7413,-0.056334,-0.00903551,0.0,0 STARLINK-5307,1 55658U 23021AG  23170.91667824 -.00903551  00000-0 -56334-1 0  9990,2 55658  69.9985 170.1914 0003331 265.6523  22.7413 15.12203796  1308,6907.618,95.225,531.784,527.182,0.0
55658.0,STARLINK-5307,PAYLOAD,2023-06-20 06:00:02,15.11541524,0.0003338,69.9988,169.333,271.6399,30.5575,-0.057847,-0.00910306,0.0,0 STARLINK-5307,1 55658U 23021AG  23171.25002315 -.00910306  00000-0 -57847-1 0  9992,2 55658  69.9988 169.3330 0003338 271.6399  30.5575 15.11541524 19687,6909.635,95.267,533.807,529.194,0.0
55658.0,STARLINK-5307,PAYLOAD,2023-06-20 14:00:01,15.10925674,0.0003312,69.9985,168.4755,272.5665,42.4976,-0.062782,-0.00966534,0.0,0 STARLINK-5307,1 55658U 23021AG  23171.58334491 -.00966534  00000-0 -62782-1 0  9999,2 55658  69.9985 168.4755 0003312 272.5665  42.4976 15.10925674  1301,6911.513,95.306,535.667,531.089,0.0
55658.0,STARLINK-5307,PAYLOAD,2023-06-20 22:00:00,15.10253302,0.0003336,69.9989,167.619,265.6712,61.5575,-0.060071,-0.00911964,0.0,0 STARLINK-5307,1 55658U 23021AG  23171.91667824 -.00911964  00000-0 -60071-1 0  9991,2 55658  69.9989 167.6190 0003336 265.6712  61.5575 15.10253302  1300,6913.564,95.348,537.735,533.122,0.0
55658.0,STARLINK-5307,PAYLOAD,2023-06-21 06:00:00,15.09580248,0.0003333,69.9991,166.7632,272.1399,66.4868,-0.060453,-0.00901654,0.0,0 STARLINK-5307,1 55658U 23021AG  23172.25001157 -.00901654  00000-0 -60453-1 0  9999,2 55658  69.9991 166.7632 0003333 272.1399  66.4868 15.09580248 19831,6915.619,95.391,539.789,535.179,0.0
55658.0,STARLINK-5307,PAYLOAD,2023-06-21 14:00:01,15.08965675,0.0003794,69.999,165.9081,272.6857,76.5211,-0.065785,-0.00960009,0.0,0 STARLINK-5307,1 55658U 23021AG  23172.58334491 -.00960009  00000-0 -65785-1 0  9997,2 55658  69.9990 165.9081 0003794 272.6857  76.5211 15.08965675  1301,6917.496,95.43,541.986,536.737,0.0
55658.0,STARLINK-5307,PAYLOAD,2023-06-21 22:00:01,15.08307062,0.0003562,69.9993,165.0542,266.8258,92.2581,-0.064617,-0.00928534,0.0,0 STARLINK-5307,1 55658U 23021AG  23172.91668981 -.00928534  00000-0 -64617-1 0  9998,2 55658  69.9993 165.0542 0003562 266.8258  92.2581 15.08307062  1293,6919.51,95.471,543.84,538.91,0.0
55658.0,STARLINK-5307,PAYLOAD,2023-06-22 06:00:00,15.07625758,0.0003382,69.9996,164.2009,272.8439,95.2317,-0.063891,-0.00903096,0.0,0 STARLINK-5307,1 55658U 23021AG  23173.25001157 -.00903096  00000-0 -63891-1 0  9991,2 55658  69.9996 164.2009 0003382 272.8439  95.2317 15.07625758 19982,6921.594,95.514,545.8,541.118,0.0
55658.0,STARLINK-5307,PAYLOAD,2023-06-23 06:00:00,15.05663896,0.0003293,69.9997,161.6469,274.0792,116.408,-0.066631,-0.00893689,0.0,0 STARLINK-5307,1 55658U 23021AG  23174.25001157 -.00893689  00000-0 -66631-1 0  9993,2 55658  69.9997 161.6469 0003293 274.0792 116.4080 15.05663896 20136,6927.606,95.639,551.752,547.189,0.0
55658.0,STARLINK-5307,PAYLOAD,2023-06-23 22:00:01,15.04391661,0.0003275,69.9999,159.9484,270.0987,131.4613,-0.07179,-0.00927732,0.0,0 STARLINK-5307,1 55658U 23021AG  23174.91668981 -.00927732  00000-0 -71790-1 0  9999,2 55658  69.9999 159.9484 0003275 270.0987 131.4613 15.04391661 20234,6931.511,95.72,555.646,551.106,0.0
55658.0,STARLINK-5307,PAYLOAD,2023-06-24 22:00:00,15.0243709,0.0003236,69.9999,157.4072,270.5992,141.5731,-0.075967,-0.00931477,0.0,0 STARLINK-5307,1 55658U 23021AG  23175.91667824 -.00931477  00000-0 -75967-1 0  9996,2 55658  69.9999 157.4072 0003236 270.5992 141.5731 15.02437090 20382,6937.521,95.844,561.631,557.141,0.0
55658.0,STARLINK-5307,PAYLOAD,2023-06-25 22:00:01,15.00482363,0.0003166,69.9997,154.8738,271.2297,144.64,-0.080374,-0.0094627,0.0,0 STARLINK-5307,1 55658U 23021AG  23176.91668981 -.00946270  00000-0 -80374-1 0  9997,2 55658  69.9997 154.8738 0003166 271.2297 144.6400 15.00482363 20533,6943.545,95.969,567.608,563.212,0.0
55658.0,STARLINK-5307,PAYLOAD,2023-06-26 06:00:00,14.9965427,0.0003076,69.9996,154.0309,275.5229,139.9737,-0.040752,-0.00475467,0.0,0 STARLINK-5307,1 55658U 23021AG  23177.25001157 -.00475467  00000-0 -40752-1 0  9992,2 55658  69.9996 154.0309 0003076 275.5229 139.9737 14.99654270 20580,6946.101,96.022,570.102,565.829,0.0
55658.0,STARLINK-5307,PAYLOAD,2023-06-26 14:00:01,14.99319994,0.0002957,69.9993,153.1889,274.7628,139.5896,-0.0047001,-0.00057167,0.0,0 STARLINK-5307,1 55658U 23021AG  23177.58334491 -.00057167  00000-0 -47001-2 0  9996,2 55658  69.9993 153.1889 0002957 274.7628 139.5896 14.99319994 20630,6947.133,96.044,571.052,566.944,0.0
55658.0,STARLINK-5307,PAYLOAD,2023-06-27 02:00:01,14.99441748,0.0002951,69.9996,151.9263,268.8563,323.4155,-0.036037,-0.00417339,0.0,0 STARLINK-5307,1 55658U 23021AG  23178.08334491 -.00417339  00000-0 -36037-1 0  9999,2 55658  69.9996 151.9263 0002951 268.8563 323.4155 14.99441748 20704,6946.757,96.036,570.672,566.572,0.0
55658.0,STARLINK-5307,PAYLOAD,2023-06-27 14:00:01,14.98677676,0.0002849,69.9991,150.6638,272.7759,137.3185,-0.04384,-0.00497302,0.0,0 STARLINK-5307,1 55658U 23021AG  23178.58334491 -.00497302  00000-0 -43840-1 0  9992,2 55658  69.9991 150.6638 0002849 272.7759 137.3185 14.98677676 20781,6949.118,96.085,572.963,569.003,0.0
55658.0,STARLINK-5307,PAYLOAD,2023-06-27 22:00:00,14.98326223,0.0002895,69.9994,149.8231,266.9701,140.7947,0.0014837,0.00017653,0.0,0 STARLINK-5307,1 55658U 23021AG  23178.91667824  .00017653  00000-0  14837-2 0  9998,2 55658  69.9994 149.8231 0002895 266.9701 140.7947 14.98326223 20835,6950.205,96.107,574.082,570.057,0.0
55658.0,STARLINK-5307,PAYLOAD,2023-06-28 14:00:01,14.98338131,0.0002915,69.999,148.1419,270.3837,132.3494,-0.0035529,-0.0004224,0.0,0 STARLINK-5307,1 55658U 23021AG  23179.58334491 -.00042240  00000-0 -35529-2 0  9996,2 55658  69.9990 148.1419 0002915 270.3837 132.3494 14.98338131 20939,6950.168,96.106,574.059,570.007,0.0
55658.0,STARLINK-5307,PAYLOAD,2023-06-29 22:00:00,14.98350345,0.000301,69.9993,144.7799,264.5849,128.0777,0.00020099,2.307e-05,0.0,0 STARLINK-5307,1 55658U 23021AG  23180.91667824  .00002307  00000-0  20099-3 0  9999,2 55658  69.9993 144.7799 0003010 264.5849 128.0777 14.98350345 21130,6950.13,96.106,574.087,569.903,0.0
55658.0,STARLINK-5307,PAYLOAD,2023-07-01 07:30:08,14.98324725,0.0002835,69.9988,141.2612,268.7575,91.3259,-3.4102e-05,-5e-06,0.0,0 STARLINK-5307,1 55658U 23021AG  23182.31259834 -.00000500  00000-0 -34102-4 0  9999,2 55658  69.9988 141.2612 0002835 268.7575  91.3259 14.98324725 21349,6950.209,96.107,574.045,570.104,0.0
